{"type": "FeatureCollection", "features": [ {"type": "Feature", "properties": {"norad_id": 32106, "name": "FENGYUN 1C DEB", "group": "fengyun-1c-debris", "lat": 77.84472556100282, "lon": -152.62292291391276, "alt_km": 742.8990066386386, "timestamp": "2025-12-11T20:41:15.366192+00:00", "meta": {"OBJECT_NAME": "FENGYUN 1C DEB", "OBJECT_ID": "1999-025CQY", "EPOCH": "2025-12-07T15:17:19.253760", "MEAN_MOTION": 14.2683793, "ECCENTRICITY": 0.01100208, "INCLINATION": 101.4628, "RA_OF_ASC_NODE": 311.4602, "ARG_OF_PERICENTER": 55.4734, "MEAN_ANOMALY": 305.6765, "EPHEMERIS_TYPE": 0, "CLASSIFICATION_TYPE": "U", "NORAD_CAT_ID": 32106, "ELEMENT_SET_NO": 999, "REV_AT_EPOCH": 69319, "BSTAR": 0.0067717781, "MEAN_MOTION_DOT": 0.00017494, "MEAN_MOTION_DDOT": 0}, "tle": {"line1": "1 32106U 99025CQY 25341.63702840  .00017494  00000+0  67718-2 0  9997", "line2": "2 32106 101.4628 311.4602 0110020  55.4734 305.6765 14.26837930693198"}}, "geometry": {"type": "Point", "coordinates": [-152.62292291391276, 77.84472556100282]}}, {"type": "Feature", "properties": {"norad_id": 32109, "name": "FENGYUN 1C DEB", "group": "fengyun-1c-debris", "lat": -39.820079586738196, "lon": 38.413831994241825, "alt_km": 794.2558049969302, "timestamp": "2025-12-11T20:41:15.366204+00:00", "meta": {"OBJECT_NAME": "FENGYUN 1C DEB", "OBJECT_ID": "1999-025CRB", "EPOCH": "2025-12-11T09:35:49.483392", "MEAN_MOTION": 14.33932235, "ECCENTRICITY": 0.02057519, "INCLINATION": 98.36, "RA_OF_ASC_NODE": 225.0092, "ARG_OF_PERICENTER": 316.3617, "MEAN_ANOMALY": 42.1454, "EPHEMERIS_TYPE": 0, "CLASSIFICATION_TYPE": "U", "NORAD_CAT_ID": 32109, "ELEMENT_SET_NO": 999, "REV_AT_EPOCH": 64869, "BSTAR": 0.0010069277, "MEAN_MOTION_DOT": 3.511e-05, "MEAN_MOTION_DDOT": 0}, "tle": {"line1": "1 32109U 99025CRB 25345.39987828  .00003511  00000+0  10069-2 0  9990", "line2": "2 32109  98.3600 225.0092 0205751 316.3617  42.1454 14.33932235648698"}}, "geometry": {"type": "Point", "coordinates": [38.413831994241825, -39.820079586738196]}}, {"type": "Feature", "properties": {"norad_id": 32110, "name": "FENGYUN 1C DEB", "group": "fengyun-1c-debris", "lat": -76.80994666377295, "lon": -70.90610391516115, "alt_km": 810.3094513385031, "timestamp": "2025-12-11T20:41:15.366214+00:00", "meta": {"OBJECT_NAME": "FENGYUN 1C DEB", "OBJECT_ID": "1999-025CRC", "EPOCH": "2025-12-09T22:48:38.448000", "MEAN_MOTION": 14.28864691, "ECCENTRICITY": 0.00332869, "INCLINATION": 99.5448, "RA_OF_ASC_NODE": 152.8867, "ARG_OF_PERICENTER": 14.9421, "MEAN_ANOMALY": 138.8449, "EPHEMERIS_TYPE": 0, "CLASSIFICATION_TYPE": "U", "NORAD_CAT_ID": 32110, "ELEMENT_SET_NO": 999, "REV_AT_EPOCH": 64348, "BSTAR": 0.0021084405, "MEAN_MOTION_DOT": 5.304e-05, "MEAN_MOTION_DDOT": 0}, "tle": {"line1": "1 32110U 99025CRC 25343.95044500  .00005304  00000+0  21084-2 0  9994", "line2": "2 32110  99.5448 152.8867 0033286  14.9421 138.8449 14.28864691643489"}}, "geometry": {"type": "Point", "coordinates": [-70.90610391516115, -76.80994666377295]}}, {"type": "Feature", "properties": {"norad_id": 32111, "name": "FENGYUN 1C DEB", "group": "fengyun-1c-debris", "lat": -72.21530363492049, "lon": 138.03205099710613, "alt_km": 734.6059960880866, "timestamp": "2025-12-11T20:41:15.366224+00:00", "meta": {"OBJECT_NAME": "FENGYUN 1C DEB", "OBJECT_ID": "1999-025CRD", "EPOCH": "2025-12-09T11:11:57.828192", "MEAN_MOTION": 14.31540382, "ECCENTRICITY": 0.01195508, "INCLINATION": 98.4433, "RA_OF_ASC_NODE": 343.2869, "ARG_OF_PERICENTER": 214.6006, "MEAN_ANOMALY": 301.2277, "EPHEMERIS_TYPE": 0, "CLASSIFICATION_TYPE": "U", "NORAD_CAT_ID": 32111, "ELEMENT_SET_NO": 999, "REV_AT_EPOCH": 95984, "BSTAR": 0.00037065644, "MEAN_MOTION_DOT": 1.022e-05, "MEAN_MOTION_DDOT": 0}, "tle": {"line1": "1 32111U 99025CRD 25343.46664153  .00001022  00000+0  37066-3 0  9994", "line2": "2 32111  98.4433 343.2869 0119550 214.6006 301.2277 14.31540382959844"}}, "geometry": {"type": "Point", "coordinates": [138.03205099710613, -72.21530363492049]}}, {"type": "Feature", "properties": {"norad_id": 32113, "name": "FENGYUN 1C DEB", "group": "fengyun-1c-debris", "lat": -70.67298392719225, "lon": 173.7026925499634, "alt_km": 760.459479799516, "timestamp": "2025-12-11T20:41:15.366236+00:00", "meta": {"OBJECT_NAME": "FENGYUN 1C DEB", "OBJECT_ID": "1999-025CRF", "EPOCH": "2025-12-11T09:08:32.848800", "MEAN_MOTION": 13.9455136, "ECCENTRICITY": 0.02379855, "INCLINATION": 99.0273, "RA_OF_ASC_NODE": 20.1854, "ARG_OF_PERICENTER": 230.3754, "MEAN_ANOMALY": 127.6187, "EPHEMERIS_TYPE": 0, "CLASSIFICATION_TYPE": "U", "NORAD_CAT_ID": 32113, "ELEMENT_SET_NO": 999, "REV_AT_EPOCH": 62867, "BSTAR": 0.0015607343, "MEAN_MOTION_DOT": 2.593e-05, "MEAN_MOTION_DDOT": 0}, "tle": {"line1": "1 32113U 99025CRF 25345.38093575  .00002593  00000+0  15607-2 0  9993", "line2": "2 32113  99.0273  20.1854 0237985 230.3754 127.6187 13.94551360628678"}}, "geometry": {"type": "Point", "coordinates": [173.7026925499634, -70.67298392719225]}}, {"type": "Feature", "properties": {"norad_id": 32114, "name": "FENGYUN 1C DEB", "group": "fengyun-1c-debris", "lat": 62.88043656032483, "lon": -57.294528361947926, "alt_km": 652.4162915728766, "timestamp": "2025-12-11T20:41:15.366246+00:00", "meta": {"OBJECT_NAME": "FENGYUN 1C DEB", "OBJECT_ID": "1999-025CRG", "EPOCH": "2025-12-06T13:19:21.641376", "MEAN_MOTION": 14.76489439, "ECCENTRICITY": 0.00447682, "INCLINATION": 99.9287, "RA_OF_ASC_NODE": 96.1919, "ARG_OF_PERICENTER": 3.5911, "MEAN_ANOMALY": 356.5605, "EPHEMERIS_TYPE": 0, "CLASSIFICATION_TYPE": "U", "NORAD_CAT_ID": 32114, "ELEMENT_SET_NO": 999, "REV_AT_EPOCH": 65638, "BSTAR": 0.0040574802, "MEAN_MOTION_DOT": 0.0002877, "MEAN_MOTION_DDOT": 0}, "tle": {"line1": "1 32114U 99025CRG 25340.55511159  .00028770  00000+0  40575-2 0  9998", "line2": "2 32114  99.9287  96.1919 0044768   3.5911 356.5605 14.76489439656383"}}, "geometry": {"type": "Point", "coordinates": [-57.294528361947926, 62.88043656032483]}}, {"type": "Feature", "properties": {"norad_id": 32117, "name": "FENGYUN 1C DEB", "group": "fengyun-1c-debris", "lat": 74.8998689613342, "lon": -114.611049230437, "alt_km": 785.2834190976555, "timestamp": "2025-12-11T20:41:15.366258+00:00", "meta": {"OBJECT_NAME": "FENGYUN 1C DEB", "OBJECT_ID": "1999-025CRK", "EPOCH": "2025-12-10T08:47:41.781984", "MEAN_MOTION": 14.23925187, "ECCENTRICITY": 0.00275954, "INCLINATION": 98.6124, "RA_OF_ASC_NODE": 29.7522, "ARG_OF_PERICENTER": 98.5643, "MEAN_ANOMALY": 261.8664, "EPHEMERIS_TYPE": 0, "CLASSIFICATION_TYPE": "U", "NORAD_CAT_ID": 32117, "ELEMENT_SET_NO": 999, "REV_AT_EPOCH": 94763, "BSTAR": 0.0014152729, "MEAN_MOTION_DOT": 3.215e-05, "MEAN_MOTION_DDOT": 0}, "tle": {"line1": "1 32117U 99025CRK 25344.36645581  .00003215  00000+0  14153-2 0  9991", "line2": "2 32117  98.6124  29.7522 0027595  98.5643 261.8664 14.23925187947630"}}, "geometry": {"type": "Point", "coordinates": [-114.611049230437, 74.8998689613342]}}, {"type": "Feature", "properties": {"norad_id": 32119, "name": "FENGYUN 1C DEB", "group": "fengyun-1c-debris", "lat": -13.281196534494173, "lon": 25.938684058600074, "alt_km": 934.9197631196103, "timestamp": "2025-12-11T20:41:15.366268+00:00", "meta": {"OBJECT_NAME": "FENGYUN 1C DEB", "OBJECT_ID": "1999-025CRM", "EPOCH": "2025-12-10T21:31:22.141056", "MEAN_MOTION": 14.02813537, "ECCENTRICITY": 0.0085507, "INCLINATION": 99.8876, "RA_OF_ASC_NODE": 207.2511, "ARG_OF_PERICENTER": 57.2355, "MEAN_ANOMALY": 303.7012, "EPHEMERIS_TYPE": 0, "CLASSIFICATION_TYPE": "U", "NORAD_CAT_ID": 32119, "ELEMENT_SET_NO": 999, "REV_AT_EPOCH": 93702, "BSTAR": 0.0011169, "MEAN_MOTION_DOT": 1.734e-05, "MEAN_MOTION_DDOT": 0}, "tle": {"line1": "1 32119U 99025CRM 25344.89678404  .00001734  00000+0  11169-2 0  9999", "line2": "2 32119  99.8876 207.2511 0085507  57.2355 303.7012 14.02813537937026"}}, "geometry": {"type": "Point", "coordinates": [25.938684058600074, -13.281196534494173]}}, {"type": "Feature", "properties": {"norad_id": 32123, "name": "FENGYUN 1C DEB", "group": "fengyun-1c-debris", "lat": -76.85263236272081, "lon": -164.02320171807725, "alt_km": 587.2630809900174, "timestamp": "2025-12-11T20:41:15.366280+00:00", "meta": {"OBJECT_NAME": "FENGYUN 1C DEB", "OBJECT_ID": "1999-025CRR", "EPOCH": "2025-12-11T06:49:49.279296", "MEAN_MOTION": 14.61454478, "ECCENTRICITY": 0.01596929, "INCLINATION": 98.9409, "RA_OF_ASC_NODE": 152.9766, "ARG_OF_PERICENTER": 297.6858, "MEAN_ANOMALY": 186.5191, "EPHEMERIS_TYPE": 0, "CLASSIFICATION_TYPE": "U", "NORAD_CAT_ID": 32123, "ELEMENT_SET_NO": 999, "REV_AT_EPOCH": 71353, "BSTAR": 0.00046354398, "MEAN_MOTION_DOT": 2.687e-05, "MEAN_MOTION_DDOT": 0}, "tle": {"line1": "1 32123U 99025CRR 25345.28459814  .00002687  00000+0  46354-3 0  9993", "line2": "2 32123  98.9409 152.9766 0159692 297.6858 186.5191 14.61454478713539"}}, "geometry": {"type": "Point", "coordinates": [-164.02320171807725, -76.85263236272081]}}, {"type": "Feature", "properties": {"norad_id": 32125, "name": "FENGYUN 1C DEB", "group": "fengyun-1c-debris", "lat": 35.28426150420239, "lon": -40.38058768176108, "alt_km": 615.4387909084107, "timestamp": "2025-12-11T20:41:15.366292+00:00", "meta": {"OBJECT_NAME": "FENGYUN 1C DEB", "OBJECT_ID": "1999-025CRT", "EPOCH": "2025-11-30T16:29:46.563072", "MEAN_MOTION": 14.69027096, "ECCENTRICITY": 0.01775541, "INCLINATION": 99.061, "RA_OF_ASC_NODE": 313.7121, "ARG_OF_PERICENTER": 0.429, "MEAN_ANOMALY": 359.7033, "EPHEMERIS_TYPE": 0, "CLASSIFICATION_TYPE": "U", "NORAD_CAT_ID": 32125, "ELEMENT_SET_NO": 999, "REV_AT_EPOCH": 70346, "BSTAR": 0.0033542642, "MEAN_MOTION_DOT": 0.00025065, "MEAN_MOTION_DDOT": 0}, "tle": {"line1": "1 32125U 99025CRT 25334.68734448  .00025065  00000+0  33543-2 0  9996", "line2": "2 32125  99.0610 313.7121 0177554   0.4290 359.7033 14.69027096703466"}}, "geometry": {"type": "Point", "coordinates": [-40.38058768176108, 35.28426150420239]}}]}